[{"OBJECT_NAME":"LYNK TOWER 3","OBJECT_ID":"2023-001AP","EPOCH":"2026-03-09T16:30:02.373408","MEAN_MOTION":15.34026505,"ECCENTRICITY":0.00098594,"INCLINATION":97.3321,"RA_OF_ASC_NODE":129.5399,"ARG_OF_PERICENTER":112.8813,"MEAN_ANOMALY":247.3472,"EPHEMERIS_TYPE":0,"CLASSIFICATION_TYPE":"U","NORAD_CAT_ID":55046,"ELEMENT_SET_NO":999,"REV_AT_EPOCH":17664,"BSTAR":0.00042323634,"MEAN_MOTION_DOT":0.00013886,"MEAN_MOTION_DDOT":0},{"OBJECT_NAME":"STARLINK-30133","OBJECT_ID":"2023-079Q","EPOCH":"2026-03-09T22:00:01.999584","MEAN_MOTION":15.21613219,"ECCENTRICITY":0.00012374,"INCLINATION":43.0015,"RA_OF_ASC_NODE":104.9884,"ARG_OF_PERICENTER":256.9041,"MEAN_ANOMALY":41.2768,"EPHEMERIS_TYPE":0,"CLASSIFICATION_TYPE":"U","NORAD_CAT_ID":56837,"ELEMENT_SET_NO":999,"REV_AT_EPOCH":567,"BSTAR":0.036862138,"MEAN_MOTION_DOT":0.00916731,"MEAN_MOTION_DDOT":0}]
